TITAN 4B R/B            
1 26474U 00047B   22153.60667248  .00001088  00000+0  10295-3 0  9992
2 26474  67.9935 266.4023 0051785 134.8492 225.6876 14.96814530186220
ENVISAT                 
1 27386U 02009A   22153.50537616  .00000085  00000+0  41672-4 0  9999
2 27386  98.1826 135.3147 0001295  88.4527  21.2746 14.38127607 61319
IDEFIX & ARIANE 42P R/B 
1 27422U 02021B   22153.46744906  .00000110  00000+0  59886-4 0  9996
2 27422  98.4490  99.9146 0010926 282.9835  77.0127 14.29414186 47315
AQUA                    
1 27424U 02022A   22153.46694753  .00000360  00000+0  89679-4 0  9993
2 27424  98.2471  95.4999 0000932  67.1919  48.4962 14.57287511 68002
CZ-4B R/B               
1 27432U 02024C   22153.54811407  .00000002  00000+0  25164-4 0  9992
2 27432  99.0623 178.4453 0049664 319.8181 193.8885 14.14140639 34711
MIDORI II (ADEOS-II)    
1 27597U 02056A   22153.54633081  .00000108  00000+0  61636-4 0  9990
2 27597  98.6063  97.6432 0002180  73.6825 286.4596 14.27608869 13844
H-2A R/B                
1 27601U 02056E   22153.54205007  .00000077  00000+0  42872-4 0  9995
2 27601  98.1764 161.0372 0070886 306.4875 163.1182 14.32072317 17049
CZ-4B R/B               
1 28059U 03049C   22153.42928730  .00000161  00000+0  50233-4 0  9992
2 28059  98.5199  89.9986 0051097 112.6804 247.9805 14.52780979986639
CZ-2C R/B               
1 28222U 04012C   22153.53031924  .00002432  00000+0  14015-3 0  9997
2 28222  97.7710 134.0985 0046873 103.1848  12.3912 15.12486155993975
SL-16 R/B               
1 28353U 04021B   22153.50107522  .00000132  00000+0  93801-4 0  9993
2 28353  71.0003 239.6408 0006241 312.3663  47.6930 14.14262234928235
CZ-4B R/B               
1 28415U 04035C   22153.52450388  .00002133  00000+0  13840-3 0  9997
2 28415  97.5166 194.3026 0051700  71.6563 289.0279 15.08044956971345
CZ-2C R/B               
1 28480U 04046B   22153.52395402  .00000041  00000+0  31014-4 0  9996
2 28480  98.0637 142.4584 0140347 266.4708  92.0414 14.25829671912318
ARIANE 5 R/B            
1 28499U 04049H   22153.59310951  .00000493  00000+0  67246-4 0  9999
2 28499  98.0956 270.2052 0092726 122.1080 249.4385 14.80410185941886
CZ-2D R/B               
1 28738U 05024B   22153.53495719  .00001640  00000+0  94407-4 0  9993
2 28738  97.3510 162.1715 0010110 222.3920 137.6531 15.13757569929499
SUZAKU (ASTRO-EII)      
1 28773U 05025A   22153.08474049  .00003945  00000+0  16932-3 0  9992
2 28773  31.3820  42.4070 0004121 217.7871 142.2488 15.20984805932683
ALOS (DAICHI)           
1 28931U 06002A   22153.46938990  .00000787  00000+0  16170-3 0  9991
2 28931  97.9342 118.8866 0002056  40.7134 319.4193 14.63177520872237
H-2A R/B                
1 28932U 06002B   22153.38676127  .00001724  00000+0  15822-3 0  9999
2 28932  98.2913 195.0497 0087804 140.8196 219.9423 14.93454491887792
AKARI (ASTRO-F)         
1 28939U 06005A   22153.17361575  .00011611  00000+0  22138-3 0  9998
2 28939  98.1958 224.5206 0069523 330.9463  28.7922 15.45692725890729
RESURS-DK 1             
1 29228U 06021A   22153.44554048  .00000494  00000+0  43634-4 0  9999
2 29228  69.9334 167.2639 0001365  73.8855 286.2457 15.03209665880124
GENESIS 1               
1 29252U 06029A   22153.33630313  .00002406  00000+0  11399-3 0  9999
2 29252  64.5211 120.7399 0059819 264.4998  94.9302 15.20582534876672
CZ-4B R/B               
1 29507U 06046C   22153.34727607  .00001015  00000+0  81162-4 0  9996
2 29507  97.7324 183.5032 0045035 279.6778  79.9361 15.01770091852609
CZ-2C R/B               
1 31114U 07010B   22153.46970292  .00000074  00000+0  53421-4 0  9999
2 31114  98.2399 327.6337 0059269 342.8636  17.0539 14.19430811784439
COSMO-SKYMED 1          
1 31598U 07023A   22153.48199080  .00000554  00000+0  76108-4 0  9999
2 31598  97.8874 337.3601 0001426  91.7019 268.4375 14.82151033810747
GENESIS 2               
1 31789U 07028A   22153.39777029  .00002360  00000+0  11762-3 0  9992
2 31789  64.4942 163.6787 0046505 316.9897  42.7594 15.19468043823612
COSMOS 2428             
1 31792U 07029A   22153.47714808  .00000327  00000+0  20238-3 0  9991
2 31792  70.9460 211.1889 0004694  72.9707 287.1928 14.12553140769819
SL-16 R/B               
1 31793U 07029B   22153.54671840 -.00000131  00000+0 -43624-4 0  9998
2 31793  70.9753 184.1786 0002937 273.8126 196.0065 14.14478667770752
KORONAS-FOTON           
1 33504U 09003A   22153.49104616  .00002381  00000+0  11808-3 0  9995
2 33504  82.4424 230.8320 0017274 326.9848  33.0305 15.17138162735699
H-2A R/B                
1 38341U 12025E   22153.51322193  .00000709  00000+0  88904-4 0  9996
2 38341  98.5068   7.7897 0056077  94.7006 266.0614 14.84696858543439
CUSAT 2 & FALCON 9 R/B  
1 39271U 13055G   22153.41416965  .00018659  00000+0  40488-3 0  9990
2 39271  80.9579 211.7134 0532776 163.1385 198.8323 14.61963656454574
CZ-2C R/B               
1 39364U 13059B   22153.38961569  .00004744  00000+0  15510-3 0  9996
2 39364  97.1604 207.2259 0043374  28.4173 331.9421 15.31268563477907
SL-4 R/B                
1 39679U 14021B   22153.60104237  .00001046  00000+0  65590-4 0  9997
2 39679  51.6179  25.1262 0164563 266.6543  91.5591 15.08610591446875
ALOS-2                  
1 39766U 14029A   22153.52564267  .00000164  00000+0  28870-4 0  9996
2 39766  97.9220 250.8687 0001589  85.2910 274.8410 14.79472925433428
CZ-2C R/B               
1 40306U 14071B   22153.44322893  .00024959  00000+0  29335-3 0  9997
2 40306  97.4169 126.3925 0013321  77.3659 282.9087 15.61332238424556
SL-27 R/B               
1 40354U 14084B   22153.51319565  .00004458  00000+0  97589-4 0  9993
2 40354  74.7374 346.3059 0034935 174.6825 185.4767 15.43737617418293
YAOGAN-29               
1 41038U 15069A   22153.48267783  .00000347  00000+0  51846-4 0  9996
2 41038  98.0548 153.6026 0002038 111.7205 248.4220 14.80861064352072
ASTRO-H (HITOMI)        
1 41337U 16012A   22153.35375913  .00000773  00000+0  54762-4 0  9991
2 41337  31.0036 155.5564 0012254 297.2771  62.6616 14.99380323344856
HXMT (HUIYAN)           
1 42758U 17034A   22153.48438245  .00002334  00000+0  15279-3 0  9990
2 42758  43.0172  70.6519 0008618 196.2349 332.9492 15.10392188273912
CZ-2C R/B               
1 43521U 18054D   22153.49264808  .00002463  00000+0  12785-3 0  9997
2 43521  35.1534  88.9785 0080087 310.2064  49.1662 15.13065256217419
AEOLUS                  
1 43600U 18066A   22153.55174865  .00078459  00000+0  30230-3 0  9991
2 43600  96.7021 159.7208 0009507  81.6677 278.5674 15.87041651218769
SAOCOM 1A               
1 43641U 18076A   22153.49041854  .00000307  00000+0  45180-4 0  9999
2 43641  97.8886 340.4042 0001475  80.5305 279.6093 14.82152958197515
SAOCOM 1B               
1 46265U 20059A   22153.52162214 -.00001401  00000+0 -16957-3 0  9993
2 46265  97.8891 339.5102 0001453  82.6845 277.4556 14.82138480 94914
TIANHE                  
1 48274U 21035A   22153.55107333  .00007215  00000+0  91039-4 0  9996
2 48274  41.4711 307.9039 0003796 202.2433 244.7412 15.59904272 62485
